{"type": "FeatureCollection", "features": [ {"type": "Feature", "properties": {"norad_id": 66442, "name": "STARLINK-34724", "group": "last-30-days", "lat": -35.47370741431839, "lon": -71.82806048169498, "alt_km": 445.39164437844374, "timestamp": "2025-12-10T20:49:51.343772+00:00", "meta": {"OBJECT_NAME": "STARLINK-34724", "OBJECT_ID": "2025-259W", "EPOCH": "2025-12-10T16:00:01.999584", "MEAN_MOTION": 15.41649343, "ECCENTRICITY": 0.00013852, "INCLINATION": 43.0009, "RA_OF_ASC_NODE": 59.4538, "ARG_OF_PERICENTER": 291.0705, "MEAN_ANOMALY": 269.1175, "EPHEMERIS_TYPE": 0, "CLASSIFICATION_TYPE": "U", "NORAD_CAT_ID": 66442, "ELEMENT_SET_NO": 999, "REV_AT_EPOCH": 594, "BSTAR": -0.034472056, "MEAN_MOTION_DOT": -0.01356337, "MEAN_MOTION_DDOT": 0}, "tle": {"line1": "1 66442U 25259W   25344.66668981 -.01356337  00000+0 -34472-1 0  9993", "line2": "2 66442  43.0009  59.4538 0001385 291.0705 269.1175 15.41649343  5944"}}, "geometry": {"type": "Point", "coordinates": [-71.82806048169498, -35.47370741431839]}}, {"type": "Feature", "properties": {"norad_id": 66443, "name": "STARLINK-35219", "group": "last-30-days", "lat": -39.75461494532002, "lon": -58.528889415186384, "alt_km": 441.67977256689846, "timestamp": "2025-12-10T20:49:51.343783+00:00", "meta": {"OBJECT_NAME": "STARLINK-35219", "OBJECT_ID": "2025-259X", "EPOCH": "2025-12-10T16:00:01.999584", "MEAN_MOTION": 15.43174142, "ECCENTRICITY": 0.00010592, "INCLINATION": 43.0007, "RA_OF_ASC_NODE": 59.4282, "ARG_OF_PERICENTER": 281.6111, "MEAN_ANOMALY": 288.9422, "EPHEMERIS_TYPE": 0, "CLASSIFICATION_TYPE": "U", "NORAD_CAT_ID": 66443, "ELEMENT_SET_NO": 999, "REV_AT_EPOCH": 584, "BSTAR": -0.045957195, "MEAN_MOTION_DOT": -0.01872837, "MEAN_MOTION_DDOT": 0}, "tle": {"line1": "1 66443U 25259X   25344.66668981 -.01872837  00000+0 -45957-1 0  9992", "line2": "2 66443  43.0007  59.4282 0001059 281.6111 288.9422 15.43174142  5848"}}, "geometry": {"type": "Point", "coordinates": [-58.528889415186384, -39.75461494532002]}}, {"type": "Feature", "properties": {"norad_id": 66444, "name": "STARLINK-35360", "group": "last-30-days", "lat": -41.2602394463289, "lon": -12.121023171905739, "alt_km": 410.383521768219, "timestamp": "2025-12-10T20:49:51.343793+00:00", "meta": {"OBJECT_NAME": "STARLINK-35360", "OBJECT_ID": "2025-259Y", "EPOCH": "2025-12-10T11:52:55.103808", "MEAN_MOTION": 15.51073811, "ECCENTRICITY": 0.00114819, "INCLINATION": 43.0003, "RA_OF_ASC_NODE": 60.358, "ARG_OF_PERICENTER": 244.0762, "MEAN_ANOMALY": 115.8915, "EPHEMERIS_TYPE": 0, "CLASSIFICATION_TYPE": "U", "NORAD_CAT_ID": 66444, "ELEMENT_SET_NO": 999, "REV_AT_EPOCH": 582, "BSTAR": 0.0028942031, "MEAN_MOTION_DOT": 0.00176816, "MEAN_MOTION_DDOT": 0}, "tle": {"line1": "1 66444U 25259Y   25344.49508222  .00176816  00000+0  28942-2 0  9992", "line2": "2 66444  43.0003  60.3580 0011481 244.0762 115.8915 15.51073811  5825"}}, "geometry": {"type": "Point", "coordinates": [-12.121023171905739, -41.2602394463289]}}, {"type": "Feature", "properties": {"norad_id": 66445, "name": "STARLINK-34698", "group": "last-30-days", "lat": -42.12526631512918, "lon": -45.71072555085543, "alt_km": 437.80028531954576, "timestamp": "2025-12-10T20:49:51.343804+00:00", "meta": {"OBJECT_NAME": "STARLINK-34698", "OBJECT_ID": "2025-259Z", "EPOCH": "2025-12-10T16:00:01.999584", "MEAN_MOTION": 15.44537646, "ECCENTRICITY": 0.00011662, "INCLINATION": 43.0001, "RA_OF_ASC_NODE": 59.4056, "ARG_OF_PERICENTER": 283.1746, "MEAN_ANOMALY": 296.4, "EPHEMERIS_TYPE": 0, "CLASSIFICATION_TYPE": "U", "NORAD_CAT_ID": 66445, "ELEMENT_SET_NO": 999, "REV_AT_EPOCH": 583, "BSTAR": -0.047034487, "MEAN_MOTION_DOT": -0.0199381, "MEAN_MOTION_DDOT": 0}, "tle": {"line1": "1 66445U 25259Z   25344.66668981 -.01993810  00000+0 -47034-1 0  9997", "line2": "2 66445  43.0001  59.4056 0001166 283.1746 296.4000 15.44537646  5831"}}, "geometry": {"type": "Point", "coordinates": [-45.71072555085543, -42.12526631512918]}}, {"type": "Feature", "properties": {"norad_id": 66446, "name": "STARLINK-34986", "group": "last-30-days", "lat": -42.18025857445904, "lon": -18.327750560103443, "alt_km": 417.2091816933107, "timestamp": "2025-12-10T20:49:51.343817+00:00", "meta": {"OBJECT_NAME": "STARLINK-34986", "OBJECT_ID": "2025-259AA", "EPOCH": "2025-12-10T11:53:56.096160", "MEAN_MOTION": 15.5041251, "ECCENTRICITY": 0.00107427, "INCLINATION": 42.9988, "RA_OF_ASC_NODE": 60.3635, "ARG_OF_PERICENTER": 198.1477, "MEAN_ANOMALY": 161.9001, "EPHEMERIS_TYPE": 0, "CLASSIFICATION_TYPE": "U", "NORAD_CAT_ID": 66446, "ELEMENT_SET_NO": 999, "REV_AT_EPOCH": 582, "BSTAR": 0.0021857098, "MEAN_MOTION_DOT": 0.00129517, "MEAN_MOTION_DDOT": 0}, "tle": {"line1": "1 66446U 25259AA  25344.49578815  .00129517  00000+0  21857-2 0  9993", "line2": "2 66446  42.9988  60.3635 0010742 198.1477 161.9001 15.50412510  5829"}}, "geometry": {"type": "Point", "coordinates": [-18.327750560103443, -42.18025857445904]}}, {"type": "Feature", "properties": {"norad_id": 66447, "name": "STARLINK-34851", "group": "last-30-days", "lat": -41.21736483916937, "lon": -11.890577256176629, "alt_km": 416.8503565164119, "timestamp": "2025-12-10T20:49:51.343828+00:00", "meta": {"OBJECT_NAME": "STARLINK-34851", "OBJECT_ID": "2025-259AB", "EPOCH": "2025-12-10T05:41:44.121408", "MEAN_MOTION": 15.50651186, "ECCENTRICITY": 0.0001321, "INCLINATION": 42.9984, "RA_OF_ASC_NODE": 61.8661, "ARG_OF_PERICENTER": 284.8329, "MEAN_ANOMALY": 75.2384, "EPHEMERIS_TYPE": 0, "CLASSIFICATION_TYPE": "U", "NORAD_CAT_ID": 66447, "ELEMENT_SET_NO": 999, "REV_AT_EPOCH": 567, "BSTAR": 0.0017574, "MEAN_MOTION_DOT": 0.00104412, "MEAN_MOTION_DDOT": 0}, "tle": {"line1": "1 66447U 25259AB  25344.23731622  .00104412  00000+0  17574-2 0  9991", "line2": "2 66447  42.9984  61.8661 0001321 284.8329  75.2384 15.50651186  5671"}}, "geometry": {"type": "Point", "coordinates": [-11.890577256176629, -41.21736483916937]}}, {"type": "Feature", "properties": {"norad_id": 66448, "name": "STARLINK-35355", "group": "last-30-days", "lat": -40.81890235076169, "lon": -9.762853357291014, "alt_km": 415.1310793816565, "timestamp": "2025-12-10T20:49:51.343838+00:00", "meta": {"OBJECT_NAME": "STARLINK-35355", "OBJECT_ID": "2025-259AC", "EPOCH": "2025-12-10T13:25:01.561440", "MEAN_MOTION": 15.5060967, "ECCENTRICITY": 0.00043605, "INCLINATION": 43.0057, "RA_OF_ASC_NODE": 59.9766, "ARG_OF_PERICENTER": 272.1256, "MEAN_ANOMALY": 87.9104, "EPHEMERIS_TYPE": 0, "CLASSIFICATION_TYPE": "U", "NORAD_CAT_ID": 66448, "ELEMENT_SET_NO": 999, "REV_AT_EPOCH": 583, "BSTAR": 0.0019215458, "MEAN_MOTION_DOT": 0.00114197, "MEAN_MOTION_DDOT": 0}, "tle": {"line1": "1 66448U 25259AC  25344.55904585  .00114197  00000+0  19215-2 0  9992", "line2": "2 66448  43.0057  59.9766 0004360 272.1256  87.9104 15.50609670  5833"}}, "geometry": {"type": "Point", "coordinates": [-9.762853357291014, -40.81890235076169]}}, {"type": "Feature", "properties": {"norad_id": 66449, "name": "STARLINK-34720", "group": "last-30-days", "lat": -40.25719259334854, "lon": -7.156700498841121, "alt_km": 416.13452108430283, "timestamp": "2025-12-10T20:49:51.343848+00:00", "meta": {"OBJECT_NAME": "STARLINK-34720", "OBJECT_ID": "2025-259AD", "EPOCH": "2025-12-10T11:51:46.579968", "MEAN_MOTION": 15.50681611, "ECCENTRICITY": 0.00025267, "INCLINATION": 43.0013, "RA_OF_ASC_NODE": 60.3517, "ARG_OF_PERICENTER": 262.4662, "MEAN_ANOMALY": 97.5912, "EPHEMERIS_TYPE": 0, "CLASSIFICATION_TYPE": "U", "NORAD_CAT_ID": 66449, "ELEMENT_SET_NO": 999, "REV_AT_EPOCH": 571, "BSTAR": 0.0022240918, "MEAN_MOTION_DOT": 0.00132863, "MEAN_MOTION_DDOT": 0}, "tle": {"line1": "1 66449U 25259AD  25344.49428912  .00132863  00000+0  22241-2 0  9994", "line2": "2 66449  43.0013  60.3517 0002526 262.4662  97.5912 15.50681611  5717"}}, "geometry": {"type": "Point", "coordinates": [-7.156700498841121, -40.25719259334854]}}, {"type": "Feature", "properties": {"norad_id": 66450, "name": "STARLINK-35334", "group": "last-30-days", "lat": -39.72592708214297, "lon": -4.922959600302984, "alt_km": 416.65316035112664, "timestamp": "2025-12-10T20:49:51.343858+00:00", "meta": {"OBJECT_NAME": "STARLINK-35334", "OBJECT_ID": "2025-259AE", "EPOCH": "2025-12-10T13:24:02.373984", "MEAN_MOTION": 15.50613633, "ECCENTRICITY": 0.00020286, "INCLINATION": 43.003, "RA_OF_ASC_NODE": 59.9713, "ARG_OF_PERICENTER": 266.842, "MEAN_ANOMALY": 93.2208, "EPHEMERIS_TYPE": 0, "CLASSIFICATION_TYPE": "U", "NORAD_CAT_ID": 66450, "ELEMENT_SET_NO": 999, "REV_AT_EPOCH": 583, "BSTAR": 0.0021724597, "MEAN_MOTION_DOT": 0.00129395, "MEAN_MOTION_DDOT": 0}, "tle": {"line1": "1 66450U 25259AE  25344.55836081  .00129395  00000+0  21725-2 0  9995", "line2": "2 66450  43.0030  59.9713 0002028 266.8420  93.2208 15.50613633  5830"}}, "geometry": {"type": "Point", "coordinates": [-4.922959600302984, -39.72592708214297]}}, {"type": "Feature", "properties": {"norad_id": 66454, "name": "VIASAT-3 F2", "group": "last-30-days", "lat": 5.209913228420371, "lon": 4.959655411900205, "alt_km": 20229.409196979603, "timestamp": "2025-12-10T20:49:51.343872+00:00", "meta": {"OBJECT_NAME": "VIASAT-3 F2", "OBJECT_ID": "2025-261A", "EPOCH": "2025-12-08T12:11:15.383616", "MEAN_MOTION": 2.19142646, "ECCENTRICITY": 0.22792154, "INCLINATION": 5.457, "RA_OF_ASC_NODE": 292.6501, "ARG_OF_PERICENTER": 190.5469, "MEAN_ANOMALY": 204.5187, "EPHEMERIS_TYPE": 0, "CLASSIFICATION_TYPE": "U", "NORAD_CAT_ID": 66454, "ELEMENT_SET_NO": 999, "REV_AT_EPOCH": 55, "BSTAR": 0, "MEAN_MOTION_DOT": -8.1e-07, "MEAN_MOTION_DDOT": 0}, "tle": {"line1": "1 66454U 25261A   25342.50781694 -.00000081  00000+0  00000+0 0  9995", "line2": "2 66454   5.4570 292.6501 2279215 190.5469 204.5187  2.19142646   557"}}, "geometry": {"type": "Point", "coordinates": [4.959655411900205, 5.209913228420371]}}]}